NORAD_CAT_ID,OBJECT_NAME,OBJECT_TYPE,EPOCH,MEAN_MOTION,ECCENTRICITY,INCLINATION,RA_OF_ASC_NODE,ARG_OF_PERICENTER,MEAN_ANOMALY,BSTAR,MEAN_MOTION_DOT,MEAN_MOTION_DDOT,TLE_LINE0,TLE_LINE1,TLE_LINE2,SEMIMAJOR_AXIS,PERIOD,APOGEE,PERIGEE,DECAYED
53982.0,STARLINK-5120,PAYLOAD,2023-03-10 08:30:37,15.08853846,0.000131,53.2153,91.3064,101.5752,258.5387,-6.6349e-05,-1.344e-05,0.0,0 STARLINK-5120,1 53982U 22125U   23069.35459892 -.00001344  00000-0 -66349-4 0  9990,2 53982  53.2153  91.3064 0001310 101.5752 258.5387 15.08853846 24177,6917.838,95.437,540.609,538.797,0.0
53982.0,STARLINK-5120,PAYLOAD,2023-03-10 18:02:56,15.08841267,0.0001064,53.2147,89.5229,110.0517,250.0589,-6.213e-05,-1.276e-05,0.0,0 STARLINK-5120,1 53982U 22125U   23069.75204563 -.00001276  00000-0 -62130-4 0  9995,2 53982  53.2147  89.5229 0001064 110.0517 250.0589 15.08841267 24234,6917.877,95.437,540.478,539.005,0.0
53982.0,STARLINK-5120,PAYLOAD,2023-03-11 00:24:30,15.08840008,0.0001438,53.2154,88.3313,100.9486,259.1668,-0.0001284,-2.331e-05,0.0,0 STARLINK-5120,1 53982U 22125U   23070.01701394 -.00002331  00000-0 -12840-3 0  9995,2 53982  53.2154  88.3313 0001438 100.9486 259.1668 15.08840008 24275,6917.88,95.438,540.74,538.751,0.0
53982.0,STARLINK-5120,PAYLOAD,2023-03-11 09:56:48,15.08841055,0.0001508,53.2168,86.5465,105.6751,254.4407,-9.0227e-05,-1.724e-05,0.0,0 STARLINK-5120,1 53982U 22125U   23070.41445245 -.00001724  00000-0 -90227-4 0  9990,2 53982  53.2168  86.5465 0001508 105.6751 254.4407 15.08841055 24253,6917.877,95.437,540.785,538.699,0.0
53982.0,STARLINK-5120,PAYLOAD,2023-03-12 01:50:40,15.08833019,0.0001335,53.217,83.5729,95.0644,265.0501,7.0612e-05,8.36e-06,0.0,0 STARLINK-5120,1 53982U 22125U   23071.07685461  .00000836  00000-0  70612-4 0  9996,2 53982  53.2170  83.5729 0001335  95.0644 265.0501 15.08833019 24431,6917.902,95.438,540.69,538.843,0.0
53982.0,STARLINK-5120,PAYLOAD,2023-03-12 05:01:26,15.08837053,0.0001451,53.2174,82.9784,96.7043,263.4114,6.1886e-05,6.97e-06,0.0,0 STARLINK-5120,1 53982U 22125U   23071.20933323  .00000697  00000-0  61886-4 0  9992,2 53982  53.2174  82.9784 0001451  96.7043 263.4114 15.08837053 24376,6917.889,95.438,540.758,538.751,0.0
53982.0,STARLINK-5120,PAYLOAD,2023-03-12 08:12:12,15.0884067,0.0001309,53.217,82.3833,100.5257,259.5882,6.9897e-05,8.25e-06,0.0,0 STARLINK-5120,1 53982U 22125U   23071.34181105  .00000825  00000-0  69897-4 0  9993,2 53982  53.2170  82.3833 0001309 100.5257 259.5882 15.08840670 24472,6917.878,95.438,540.649,538.838,0.0
53982.0,STARLINK-5120,PAYLOAD,2023-03-13 01:41:27,15.08822098,0.0001334,53.2163,79.1106,106.938,253.1759,0.0004418,6.747e-05,0.0,0 STARLINK-5120,1 53982U 22125U   23072.07045669  .00006747  00000-0  44180-3 0  9994,2 53982  53.2163  79.1106 0001334 106.9380 253.1759 15.08822098 24585,6917.935,95.439,540.723,538.877,0.0
53982.0,STARLINK-5120,PAYLOAD,2023-03-13 09:38:22,15.08832373,0.0001321,53.2171,77.6247,97.4827,262.6316,0.00049822,7.648e-05,0.0,0 STARLINK-5120,1 53982U 22125U   23072.40165067  .00007648  00000-0  49822-3 0  9995,2 53982  53.2171  77.6247 0001321  97.4827 262.6316 15.08832373 24636,6917.904,95.438,540.683,538.855,0.0
53982.0,STARLINK-5120,PAYLOAD,2023-03-14 09:29:10,15.08837069,0.0001332,53.2159,73.1637,84.2273,275.8871,1.9286e-05,1.9e-07,0.0,0 STARLINK-5120,1 53982U 22125U   23073.39525991  .00000019  00000-0  19286-4 0  9997,2 53982  53.2159  73.1637 0001332  84.2273 275.8871 15.08837069 24782,6917.889,95.438,540.676,538.833,0.0
53982.0,STARLINK-5120,PAYLOAD,2023-03-14 17:26:05,15.0884263,0.0001293,53.216,71.6752,109.4145,250.6987,7.9e-05,9.7e-06,0.0,0 STARLINK-5120,1 53982U 22125U   23073.72645357  .00000970  00000-0  79000-4 0  9999,2 53982  53.2160  71.6752 0001293 109.4145 250.6987 15.08842630 24834,6917.872,95.437,540.632,538.843,0.0
53982.0,STARLINK-5120,PAYLOAD,2023-03-15 09:19:55,15.08862395,0.0001333,53.2146,68.7021,98.0171,262.0972,0.00039527,6.012e-05,0.0,0 STARLINK-5120,1 53982U 22125U   23074.38884098  .00006012  00000-0  39527-3 0  9991,2 53982  53.2146  68.7021 0001333  98.0171 262.0972 15.08862395 24933,6917.812,95.436,540.599,538.755,0.0
53982.0,STARLINK-5120,PAYLOAD,2023-03-16 02:49:10,15.08850886,0.0001054,53.2147,65.434,104.3102,255.8007,0.00017903,2.563e-05,0.0,0 STARLINK-5120,1 53982U 22125U   23075.11748502  .00002563  00000-0  17903-3 0  9993,2 53982  53.2147  65.4340 0001054 104.3102 255.8007 15.08850886 25041,6917.847,95.437,540.441,538.983,0.0
53982.0,STARLINK-5120,PAYLOAD,2023-03-16 09:10:42,15.08866456,9.29e-05,53.2153,64.2423,97.2948,262.815,0.00056557,8.731e-05,0.0,0 STARLINK-5120,1 53982U 22125U   23075.38243909  .00008731  00000-0  56557-3 0  9994,2 53982  53.2153  64.2423 0000929  97.2948 262.8150 15.08866456 25086,6917.8,95.436,540.307,539.022,0.0
53982.0,STARLINK-5120,PAYLOAD,2023-03-16 23:29:11,15.08826286,8.74e-05,53.2156,61.5651,87.0733,273.0359,0.00030905,4.632e-05,0.0,0 STARLINK-5120,1 53982U 22125U   23075.97860827  .00004632  00000-0  30905-3 0  9998,2 53982  53.2156  61.5651 0000874  87.0733 273.0359 15.08826286 25172,6917.922,95.438,540.392,539.183,0.0
53982.0,STARLINK-5120,PAYLOAD,2023-03-17 09:01:30,15.08827652,9.09e-05,53.2158,59.7816,76.527,283.5823,0.00020708,3.008e-05,0.0,0 STARLINK-5120,1 53982U 22125U   23076.37605269  .00003008  00000-0  20708-3 0  9996,2 53982  53.2158  59.7816 0000909  76.5270 283.5823 15.08827652 25152,6917.918,95.438,540.412,539.154,0.0
53982.0,STARLINK-5120,PAYLOAD,2023-03-17 15:23:03,15.08830561,8.64e-05,53.2157,58.5922,75.8762,284.2326,0.0002582,3.823e-05,0.0,0 STARLINK-5120,1 53982U 22125U   23076.64101481  .00003823  00000-0  25820-3 0  9998,2 53982  53.2157  58.5922 0000864  75.8762 284.2326 15.08830561 25197,6917.909,95.438,540.372,539.177,0.0
53982.0,STARLINK-5120,PAYLOAD,2023-03-18 07:16:54,15.08847619,8.01e-05,53.2155,55.6182,71.3516,288.7563,0.0004526,6.924e-05,0.0,0 STARLINK-5120,1 53982U 22125U   23077.30341184  .00006924  00000-0  45260-3 0  9993,2 53982  53.2155  55.6182 0000801  71.3516 288.7563 15.08847619 25374,6917.857,95.437,540.276,539.168,0.0
53982.0,STARLINK-5120,PAYLOAD,2023-03-18 15:13:50,15.08851162,8.05e-05,53.2155,54.1312,67.7439,292.3639,0.00048813,7.492e-05,0.0,0 STARLINK-5120,1 53982U 22125U   23077.63461068  .00007492  00000-0  48813-3 0  9991,2 53982  53.2155  54.1312 0000805  67.7439 292.3639 15.08851162 25340,6917.846,95.437,540.268,539.154,0.0
53982.0,STARLINK-5120,PAYLOAD,2023-03-19 03:56:56,15.08835709,0.0001354,53.2166,51.7536,76.6146,283.4997,7.7563e-05,9.47e-06,0.0,0 STARLINK-5120,1 53982U 22125U   23078.16453759  .00000947  00000-0  77563-4 0  9991,2 53982  53.2166  51.7536 0001354  76.6146 283.4997 15.08835709 25502,6917.894,95.438,540.695,538.822,0.0
53982.0,STARLINK-5120,PAYLOAD,2023-03-19 05:32:19,15.08837941,0.0001299,53.2173,51.4581,83.8381,276.2759,0.00011912,1.608e-05,0.0,0 STARLINK-5120,1 53982U 22125U   23078.23077612  .00001608  00000-0  11912-3 0  9999,2 53982  53.2173  51.4581 0001299  83.8381 276.2759 15.08837941 25434,6917.887,95.438,540.65,538.853,0.0
53982.0,STARLINK-5120,PAYLOAD,2023-03-19 15:04:38,15.08837861,0.0001162,53.2165,49.6717,85.1337,274.9787,0.00011062,1.473e-05,0.0,0 STARLINK-5120,1 53982U 22125U   23078.62821784  .00001473  00000-0  11062-3 0  9995,2 53982  53.2165  49.6717 0001162  85.1337 274.9787 15.08837861 25493,6917.887,95.438,540.556,538.948,0.0
53982.0,STARLINK-5120,PAYLOAD,2023-03-20 06:58:29,15.08841361,0.0001175,53.2171,46.698,89.795,270.3177,-1.6515e-05,-5.51e-06,0.0,0 STARLINK-5120,1 53982U 22125U   23079.29061700 -.00000551  00000-0 -16515-4 0  9990,2 53982  53.2171  46.6980 0001175  89.7950 270.3177 15.08841361 25677,6917.876,95.437,540.554,538.928,0.0
53982.0,STARLINK-5120,PAYLOAD,2023-03-21 06:49:15,15.08856214,0.0001173,53.216,42.2352,113.126,246.9855,0.00042175,6.434e-05,0.0,0 STARLINK-5120,1 53982U 22125U   23080.28421153  .00006434  00000-0  42175-3 0  9997,2 53982  53.2160  42.2352 0001173 113.1260 246.9855 15.08856214 25826,6917.831,95.437,540.507,538.884,0.0
53982.0,STARLINK-5120,PAYLOAD,2023-03-22 03:29:17,15.08838048,0.0001394,53.2177,38.3707,100.0647,260.0502,0.00010567,1.394e-05,0.0,0 STARLINK-5120,1 53982U 22125U   23081.14534278  .00001394  00000-0  10567-3 0  9996,2 53982  53.2177  38.3707 0001394 100.0647 260.0502 15.08838048 25958,6917.886,95.438,540.716,538.787,0.0
53982.0,STARLINK-5120,PAYLOAD,2023-03-22 06:40:03,15.08839655,0.0001339,53.2174,37.7753,101.7446,258.3696,0.00015031,2.105e-05,0.0,0 STARLINK-5120,1 53982U 22125U   23081.27782248  .00002105  00000-0  15031-3 0  9994,2 53982  53.2174  37.7753 0001339 101.7446 258.3696 15.08839655 25895,6917.881,95.438,540.673,538.82,0.0
53982.0,STARLINK-5120,PAYLOAD,2023-03-23 06:30:50,15.08852724,0.0001219,53.2166,33.3147,96.3192,263.7939,0.00051877,7.981e-05,0.0,0 STARLINK-5120,1 53982U 22125U   23082.27142128  .00007981  00000-0  51877-3 0  9997,2 53982  53.2166  33.3147 0001219  96.3192 263.7939 15.08852724 26128,6917.841,95.437,540.55,538.863,0.0
53982.0,STARLINK-5120,PAYLOAD,2023-03-24 03:10:51,15.08868687,0.0001156,53.2169,29.4493,78.9746,281.1376,0.00098651,0.00015459,0.0,0 STARLINK-5120,1 53982U 22125U   23083.13253985  .00015459  00000-0  98651-3 0  9997,2 53982  53.2169  29.4493 0001156  78.9746 281.1376 15.08868687 26250,6917.793,95.436,540.457,538.858,0.0
53982.0,STARLINK-5120,PAYLOAD,2023-03-24 15:53:56,15.08848989,8.54e-05,53.2173,27.0706,98.8986,261.2103,0.00029217,4.366e-05,0.0,0 STARLINK-5120,1 53982U 22125U   23083.66245842  .00004366  00000-0  29217-3 0  9995,2 53982  53.2173  27.0706 0000854  98.8986 261.2103 15.08848989 26336,6917.853,95.437,540.309,539.127,0.0
53982.0,STARLINK-5120,PAYLOAD,2023-03-25 01:26:15,15.08836609,0.0001599,53.2172,25.2874,123.546,236.5685,0.00031844,4.783e-05,0.0,0 STARLINK-5120,1 53982U 22125U   23084.05990142  .00004783  00000-0  31844-3 0  9991,2 53982  53.2172  25.2874 0001599 123.5460 236.5685 15.08836609 26393,6917.891,95.438,540.862,538.65,0.0
